NORAD_CAT_ID,OBJECT_NAME,OBJECT_TYPE,EPOCH,MEAN_MOTION,ECCENTRICITY,INCLINATION,RA_OF_ASC_NODE,ARG_OF_PERICENTER,MEAN_ANOMALY,BSTAR,MEAN_MOTION_DOT,MEAN_MOTION_DDOT,TLE_LINE0,TLE_LINE1,TLE_LINE2,SEMIMAJOR_AXIS,PERIOD,APOGEE,PERIGEE,DECAYED
49168.0,STARLINK-3101,PAYLOAD,2024-03-10 09:46:00,14.98343828,0.0003011,69.9991,313.2229,278.4314,81.6504,-0.00016971,-2.118e-05,0.0,0 STARLINK-3101,1 49168U 21082AQ  24070.40694913 -.00002118  00000-0 -16971-3 0  9991,2 49168  69.9991 313.2229 0003011 278.4314  81.6504 14.98343828138432,6950.15,96.106,574.108,569.922,0.0
49168.0,STARLINK-3101,PAYLOAD,2024-03-10 20:58:57,14.98330418,0.0002944,69.9995,312.0449,268.6356,91.4466,6.0915e-05,6.34e-06,0.0,0 STARLINK-3101,1 49168U 21082AQ  24070.87427150  .00000634  00000-0  60915-4 0  9996,2 49168  69.9995 312.0449 0002944 268.6356  91.4466 14.98330418138503,6950.192,96.107,574.103,570.01,0.0
49168.0,STARLINK-3101,PAYLOAD,2024-03-10 22:35:05,14.98331737,0.0002943,69.9994,311.877,269.5168,90.5654,5.1508e-05,5.22e-06,0.0,0 STARLINK-3101,1 49168U 21082AQ  24070.94103106  .00000522  00000-0  51508-4 0  9990,2 49168  69.9994 311.8770 0002943 269.5168  90.5654 14.98331737138511,6950.188,96.107,574.098,570.007,0.0
49168.0,STARLINK-3101,PAYLOAD,2024-03-11 09:48:01,14.98331912,0.0002911,69.9993,310.6985,269.6255,90.4571,4.1916e-05,4.07e-06,0.0,0 STARLINK-3101,1 49168U 21082AQ  24071.40835044  .00000407  00000-0  41916-4 0  9999,2 49168  69.9993 310.6985 0002911 269.6255  90.4571 14.98331912138587,6950.187,96.107,574.075,570.029,0.0
49168.0,STARLINK-3101,PAYLOAD,2024-03-12 01:49:21,14.98333832,0.0002921,69.9992,309.0152,269.7205,90.3619,1.243e-05,5.5e-07,0.0,0 STARLINK-3101,1 49168U 21082AQ  24072.07594853  .00000055  00000-0  12430-4 0  9991,2 49168  69.9992 309.0152 0002921 269.7205  90.3619 14.98333832138687,6950.181,96.107,574.076,570.016,0.0
49168.0,STARLINK-3101,PAYLOAD,2024-03-12 22:39:06,14.98331729,0.0002865,69.9992,306.8269,270.185,89.8981,1.5178e-07,-9.1e-07,0.0,0 STARLINK-3101,1 49168U 21082AQ  24072.94382894 -.00000091  00000-0  15178-6 0  9992,2 49168  69.9992 306.8269 0002865 270.1850  89.8981 14.98331729138813,6950.188,96.107,574.044,570.061,0.0
49168.0,STARLINK-3101,PAYLOAD,2024-03-13 01:51:22,14.98331024,0.0002923,69.9991,306.4904,270.4845,89.5979,-1.0597e-05,-2.19e-06,0.0,0 STARLINK-3101,1 49168U 21082AQ  24073.07734952 -.00000219  00000-0 -10597-4 0  9994,2 49168  69.9991 306.4904 0002923 270.4845  89.5979 14.98331024138830,6950.19,96.107,574.086,570.023,0.0
49168.0,STARLINK-3101,PAYLOAD,2024-03-13 08:15:55,14.98331413,0.0002931,69.999,305.817,270.6095,89.4728,-8.349e-06,-1.93e-06,0.0,0 STARLINK-3101,1 49168U 21082AQ  24073.34438886 -.00000193  00000-0 -83490-5 0  9995,2 49168  69.9990 305.8170 0002931 270.6095  89.4728 14.98331413138872,6950.189,96.107,574.091,570.016,0.0
49168.0,STARLINK-3101,PAYLOAD,2024-03-13 22:41:07,14.98330977,0.0002986,69.9989,304.3017,273.3869,86.6949,2.5973e-05,2.17e-06,0.0,0 STARLINK-3101,1 49168U 21082AQ  24073.94522756  .00000217  00000-0  25973-4 0  9997,2 49168  69.9989 304.3017 0002986 273.3869  86.6949 14.98330977138961,6950.19,96.107,574.13,569.98,0.0
49168.0,STARLINK-3101,PAYLOAD,2024-03-14 01:53:23,14.98332149,0.0002965,69.9988,303.965,273.4484,86.6336,3.6286e-05,3.4e-06,0.0,0 STARLINK-3101,1 49168U 21082AQ  24074.07874651  .00000340  00000-0  36286-4 0  9992,2 49168  69.9988 303.9650 0002965 273.4484  86.6336 14.98332149138984,6950.186,96.107,574.112,569.991,0.0
49168.0,STARLINK-3101,PAYLOAD,2024-03-14 21:07:00,14.98328828,0.000298,69.9987,301.945,273.7096,86.3722,7.7894e-06,0.0,0.0,0 STARLINK-3101,1 49168U 21082AQ  24074.87986905  .00000000  00000-0  77894-5 0  9990,2 49168  69.9987 301.9450 0002980 273.7096  86.3722 14.98328828139108,6950.197,96.107,574.133,569.99,0.0
49168.0,STARLINK-3101,PAYLOAD,2024-03-15 14:44:29,14.98329626,0.0002855,69.9988,300.093,268.9616,91.1216,6.9831e-06,-1e-07,0.0,0 STARLINK-3101,1 49168U 21082AQ  24075.61422853 -.00000010  00000-0  69831-5 0  9994,2 49168  69.9988 300.0930 0002855 268.9616  91.1216 14.98329626139218,6950.194,96.107,574.043,570.075,0.0
49168.0,STARLINK-3101,PAYLOAD,2024-03-15 22:45:09,14.9832919,0.0002817,69.9988,299.251,266.7458,93.3379,7.9165e-06,1e-08,0.0,0 STARLINK-3101,1 49168U 21082AQ  24075.94802865  .00000001  00000-0  79165-5 0  9995,2 49168  69.9988 299.2510 0002817 266.7458  93.3379 14.98329190139264,6950.195,96.107,574.018,570.103,0.0
49168.0,STARLINK-3101,PAYLOAD,2024-03-16 00:21:17,14.98329488,0.0002856,69.9987,299.0827,267.9849,92.0983,8.2627e-06,6e-08,0.0,0 STARLINK-3101,1 49168U 21082AQ  24076.01478849  .00000006  00000-0  82627-5 0  9997,2 49168  69.9987 299.0827 0002856 267.9849  92.0983 14.98329488139270,6950.194,96.107,574.044,570.074,0.0
49168.0,STARLINK-3101,PAYLOAD,2024-03-16 19:34:54,14.9832921,0.0002926,69.9983,297.0629,267.697,92.3855,1.8396e-05,1.26e-06,0.0,0 STARLINK-3101,1 49168U 21082AQ  24076.81590847  .00000126  00000-0  18396-4 0  9992,2 49168  69.9983 297.0629 0002926 267.6970  92.3855 14.98329210139391,6950.195,96.107,574.094,570.027,0.0
49168.0,STARLINK-3101,PAYLOAD,2024-03-16 22:47:10,14.9833041,0.0002892,69.9984,296.7262,267.6005,92.4823,3.3021e-05,3.01e-06,0.0,0 STARLINK-3101,1 49168U 21082AQ  24076.94942735  .00000301  00000-0  33021-4 0  9990,2 49168  69.9984 296.7262 0002892 267.6005  92.4823 14.98330410139415,6950.192,96.107,574.067,570.047,0.0
49168.0,STARLINK-3101,PAYLOAD,2024-03-17 14:48:31,14.98329043,0.0002868,69.9983,295.0427,268.7899,91.2931,2.1489e-05,1.63e-06,0.0,0 STARLINK-3101,1 49168U 21082AQ  24077.61702852  .00000163  00000-0  21489-4 0  9990,2 49168  69.9983 295.0427 0002868 268.7899  91.2931 14.98329043139513,6950.196,96.107,574.054,570.068,0.0
49168.0,STARLINK-3101,PAYLOAD,2024-03-17 19:36:55,14.98328412,0.0002892,69.9983,294.538,268.963,91.1197,1.3822e-05,7.2e-07,0.0,0 STARLINK-3101,1 49168U 21082AQ  24077.81730930  .00000072  00000-0  13822-4 0  9991,2 49168  69.9983 294.5380 0002892 268.9630  91.1197 14.98328412139542,6950.198,96.107,574.073,570.053,0.0
49168.0,STARLINK-3101,PAYLOAD,2024-03-17 21:13:03,14.98328089,0.0002907,69.9983,294.3699,269.1971,90.8855,9.431e-06,2e-07,0.0,0 STARLINK-3101,1 49168U 21082AQ  24077.88406971  .00000020  00000-0  94310-5 0  9998,2 49168  69.9983 294.3699 0002907 269.1971  90.8855 14.98328089139559,6950.199,96.107,574.084,570.043,0.0
49168.0,STARLINK-3101,PAYLOAD,2024-03-18 00:25:19,14.98329136,0.0002924,69.9982,294.0327,270.6292,89.4532,1.5706e-05,9.4e-07,0.0,0 STARLINK-3101,1 49168U 21082AQ  24078.01758908  .00000094  00000-0  15706-4 0  9996,2 49168  69.9982 294.0327 0002924 270.6292  89.4532 14.98329136139577,6950.196,96.107,574.093,570.028,0.0
49168.0,STARLINK-3101,PAYLOAD,2024-03-18 21:15:04,14.98333002,0.000298,69.998,291.8442,271.8105,88.2713,3.388e-05,3.11e-06,0.0,0 STARLINK-3101,1 49168U 21082AQ  24078.88546564  .00000311  00000-0  33880-4 0  9999,2 49168  69.9980 291.8442 0002980 271.8105  88.2713 14.98333002139706,6950.184,96.107,574.12,569.977,0.0
49168.0,STARLINK-3101,PAYLOAD,2024-03-19 00:27:20,14.98333549,0.0002985,69.998,291.5075,272.0913,87.9904,3.8319e-05,3.64e-06,0.0,0 STARLINK-3101,1 49168U 21082AQ  24079.01898487  .00000364  00000-0  38319-4 0  9999,2 49168  69.9980 291.5075 0002985 272.0913  87.9904 14.98333549139726,6950.182,96.107,574.122,569.972,0.0
49168.0,STARLINK-3101,PAYLOAD,2024-03-20 13:18:25,14.98331711,0.0002805,69.998,287.6356,272.8462,87.2376,-8.5591e-06,-1.95e-06,0.0,0 STARLINK-3101,1 49168U 21082AQ  24080.55446597 -.00000195  00000-0 -85591-5 0  9990,2 49168  69.9980 287.6356 0002805 272.8462  87.2376 14.98331711139952,6950.188,96.107,574.002,570.103,0.0
49168.0,STARLINK-3101,PAYLOAD,2024-03-20 21:19:06,14.98328371,0.0002892,69.9981,286.7948,267.2623,92.8205,-2.7945e-05,-4.26e-06,0.0,0 STARLINK-3101,1 49168U 21082AQ  24080.88826758 -.00000426  00000-0 -27945-4 0  9992,2 49168  69.9981 286.7948 0002892 267.2623  92.8205 14.98328371140002,6950.198,96.107,574.073,570.053,0.0
49168.0,STARLINK-3101,PAYLOAD,2024-03-21 14:56:34,14.98331902,0.0002955,69.9978,284.9427,269.1205,90.9615,-4.2212e-06,-1.43e-06,0.0,0 STARLINK-3101,1 49168U 21082AQ  24081.62262485 -.00000143  00000-0 -42212-5 0  9997,2 49168  69.9978 284.9427 0002955 269.1205  90.9615 14.98331902140117,6950.187,96.107,574.106,569.998,0.0
49168.0,STARLINK-3101,PAYLOAD,2024-03-21 21:21:06,14.98333516,0.000292,69.9978,284.2692,269.2519,90.8305,1.9734e-05,1.42e-06,0.0,0 STARLINK-3101,1 49168U 21082AQ  24081.88966284  .00000142  00000-0  19734-4 0  9992,2 49168  69.9978 284.2692 0002920 269.2519  90.8305 14.98333516140157,6950.182,96.107,574.076,570.018,0.0
49168.0,STARLINK-3101,PAYLOAD,2024-03-22 14:58:35,14.98324678,0.0002944,69.9977,282.4172,268.5574,91.5248,0.00016488,1.875e-05,0.0,0 STARLINK-3101,1 49168U 21082AQ  24082.62402311  .00001875  00000-0  16488-3 0  9997,2 49168  69.9977 282.4172 0002944 268.5574  91.5248 14.98324678140263,6950.209,96.107,574.12,570.028,0.0
49168.0,STARLINK-3101,PAYLOAD,2024-03-22 21:23:07,14.98332648,0.000293,69.998,281.7436,268.6729,91.4094,4.3431e-05,4.25e-06,0.0,0 STARLINK-3101,1 49168U 21082AQ  24082.89106154  .00000425  00000-0  43431-4 0  9991,2 49168  69.9980 281.7436 0002930 268.6729  91.4094 14.98332648140309,6950.185,96.107,574.086,570.013,0.0
49168.0,STARLINK-3101,PAYLOAD,2024-03-22 22:59:15,14.98327482,0.0002947,69.9979,281.5755,268.5023,91.5799,0.00015533,1.761e-05,0.0,0 STARLINK-3101,1 49168U 21082AQ  24082.95782227  .00001761  00000-0  15533-3 0  9994,2 49168  69.9979 281.5755 0002947 268.5023  91.5799 14.98327482140317,6950.201,96.107,574.114,570.017,0.0
49168.0,STARLINK-3101,PAYLOAD,2024-03-23 21:25:08,14.98329494,0.0002794,69.9986,279.2197,266.7721,93.3119,-1.1914e-05,-2.35e-06,0.0,0 STARLINK-3101,1 49168U 21082AQ  24083.89246512 -.00000235  00000-0 -11914-4 0  9997,2 49168  69.9986 279.2197 0002794 266.7721  93.3119 14.98329494140450,6950.194,96.107,574.001,570.118,0.0
